[
  {
    "name": "English",
    "callingCode": "44",
    "cca2": "EN",
    "currency": ["EURO"],
    "flag": "ğŸ‡¬ğŸ‡§",
    "color": "#373e5a",
    "locale": "en-US"
  },
  {
    "name": "German",
    "callingCode": "44",
    "cca2": "GE",
    "currency": ["EURO"],
    "flag": "ğŸ‡©ğŸ‡ª",
    "color": "#ffcc20",
    "locale": "de"
  },
  {
    "name": "Ø¹Ø±Ø¨ÙŠ",
    "callingCode": "91",
    "cca2": "AE",
    "currency": ["AED"],
    "flag": "ğŸ‡¦ğŸ‡ª",
    "color": "#208645",
    "locale": "ar"
  },
  {
    "name": "Ñ€ÑƒÑÑĞºĞ¸Ğ¹",
    "callingCode": "43",
    "cca2": "RU",
    "currency": ["RUB"],
    "flag": "ğŸ‡·ğŸ‡º",
    "color": "#1a53be",
    "locale": "ru"
  },
  {
    "name": "EspaÃ±ol",
    "callingCode": "297",
    "cca2": "ES",
    "currency": ["EURO"],
    "flag": "ğŸ‡ªğŸ‡¸",
    "color": "#c52d1f",
    "locale": "es"
  },
  {
    "name": "italiano",
    "callingCode": "967",
    "cca2": "IT",
    "currency": ["EURO"],
    "flag": "ğŸ‡®ğŸ‡¹",
    "color": "#20ab6a",
    "locale": "it"
  },
  {
    "name": "FranÃ§ais",
    "callingCode": "90",
    "cca2": "FR",
    "currency": ["EURO"],
    "flag": "ğŸ‡«ğŸ‡·",
    "color": "#E30A17",
    "locale": "fr"
  },
  {
    "name": "ä¸­å›½",
    "callingCode": "27",
    "cca2": "CN",
    "currency": ["CNY"],
    "flag": "ğŸ‡¨ğŸ‡³",
    "color": "#d93420",
    "locale": "zh"
  },
  {
    "name": "polski",
    "callingCode": "90",
    "cca2": "PL",
    "currency": ["PLN"],
    "flag": "ğŸ‡µğŸ‡±",
    "color": "#DC143C",
    "locale": "pl"
  },
  {
    "name": "Turkey",
    "callingCode": "90",
    "cca2": "TR",
    "currency": ["TRY"],
    "flag": "ğŸ‡¹ğŸ‡·",
    "color": "#E30A17",
    "locale": "tr-TR"
  }
]
